IRIDIUM 155             
1 43573U 18061E   22031.62132199  .00000157  00000+0  48944-4 0  9994
2 43573  86.3987   4.3272 0002162  98.9512 261.1928 14.34221087184383
IRIDIUM 154             
1 43574U 18061F   22031.46275713  .00000146  00000+0  45120-4 0  9998
2 43574  86.3990   4.4505 0001998  80.3937 279.7485 14.34220058184403
IRIDIUM 163             
1 43575U 18061G   22031.65304756  .00000153  00000+0  47547-4 0  9993
2 43575  86.3988   4.3352 0002539  81.7734 278.3750 14.34217168184400
IRIDIUM 156             
1 43576U 18061H   22031.62767038  .00000159  00000+0  49601-4 0  9996
2 43576  86.3988   4.3510 0002449  91.0060 269.1417 14.34220191184388
IRIDIUM 164             
1 43577U 18061J   22031.46909482  .00000143  00000+0  44138-4 0  9993
2 43577  86.3989   4.4333 0002162  80.3827 279.7613 14.34215243184419
IRIDIUM 159             
1 43578U 18061K   22031.43739964  .00000156  00000+0  48692-4 0  9990
2 43578  86.3988   4.4170 0002069  82.1145 278.0285 14.34215906184375
IRIDIUM 180             
1 43922U 19002A   22031.50663861  .00000178  00000+0  56465-4 0  9990
2 43922  86.3979 301.2632 0002188  62.0630 298.0788 14.34222660159992
IRIDIUM 176             
1 43923U 19002B   22031.23812905  .00000557  00000+0  84488-4 0  9993
2 43923  86.6114 301.4105 0002097  88.0197 272.1261 14.72256888164142
IRIDIUM 168             
1 43924U 19002C   22031.77938810  .00000172  00000+0  54296-4 0  9994
2 43924  86.3981 301.1815 0001918  76.6274 283.5136 14.34216715160019
IRIDIUM 173             
1 43925U 19002D   22031.48762003  .00000179  00000+0  56943-4 0  9990
2 43925  86.3978 301.2573 0002010  78.4658 281.6763 14.34222118159958
IRIDIUM 169             
1 43926U 19002E   22031.76486703  .00000197  00000+0  57780-4 0  9992
2 43926  86.4258 332.7435 0004240 175.6279 184.4957 14.38606053160565
IRIDIUM 172             
1 43927U 19002F   22031.83011787  .00000166  00000+0  52049-4 0  9996
2 43927  86.3978 301.1173 0002011  75.9339 284.2080 14.34214628160011
IRIDIUM 175             
1 43928U 19002G   22031.50384864  .00000573  00000+0  86896-4 0  9999
2 43928  86.6115 301.1257 0002354  77.9820 282.1661 14.72252186164174
IRIDIUM 171             
1 43929U 19002H   22031.81109124  .00000180  00000+0  57073-4 0  9997
2 43929  86.3987 301.2541 0001892  77.7513 282.3894 14.34219904160006
IRIDIUM 170             
1 43930U 19002J   22031.44824858  .00000561  00000+0  85027-4 0  9999
2 43930  86.6113 301.3284 0002156  83.6778 276.4685 14.72252942164186
IRIDIUM 167             
1 43931U 19002K   22031.24660043  .00000179  00000+0  56959-4 0  9999
2 43931  86.3978 301.3693 0002014  68.8016 291.3394 14.34213801159928
